{"fetched_at":"2026-05-03T06:27:58Z","count":17151,"tles":[{"name":"STARLINK-37483","line1":"1 68856U 26094T   26122.41670139 -.01705114  89091-3 -32229-2 0  9999","line2":"2 68856  97.2812 136.0778 0001338  86.3574 150.7474 16.00912739  2002","category":"Starlink"}]}