{
  "norad_id": 68856,
  "name": "STARLINK-37483",
  "history": [
    {
      "epoch": "2026-05-02T10:00:03.000096Z",
      "apogee_km": 272.77965744885296,
      "perigee_km": 271.00011025473395,
      "latitude_deg": -56.64635337377932,
      "longitude_deg": -65.39859902630637,
      "height_km": 294.695391652449,
      "semi_major_axis_km": 6650.026883851793,
      "eccentricity": 0.0001338,
      "inclination_deg": 97.2812,
      "raan_deg": 136.0778,
      "arg_perigee_deg": 86.3574,
      "mean_anomaly_deg": 150.7474,
      "mean_motion_rev_day": 16.00912739
    }
  ]
}